COSMOS 2251 DEB         
1 34481U 93036UA  26065.97515687  .00001130  00000+0  41225-3 0  9999
2 34481  73.9763 259.0875 0069381  52.7107  97.2922 14.32872151886559
COSMOS 2251 DEB         
1 34482U 93036UB  26065.42107807  .00013531  00000+0  21526-2 0  9990
2 34482  74.0354  61.2418 0037614 104.1132  61.1629 14.71592582894179
COSMOS 2251 DEB         
1 34544U 93036UE  26065.98571368  .00000545  00000+0  51762-3 0  9994
2 34544  73.9140  67.6339 0380003  80.5301 313.3084 13.54824565840233
COSMOS 2251 DEB         
1 34546U 93036UG  26065.82643699  .00002075  00000+0  59035-3 0  9997
2 34546  74.0282  92.3448 0020076 155.7254 255.8592 14.45842016892416
COSMOS 2251 DEB         
1 34547U 93036UH  26065.62309295  .00010005  00000+0  15054-2 0  9991
2 34547  74.0300 297.1514 0016291 353.1980   6.8970 14.74460677897578
COSMOS 2251 DEB         
1 34553U 93036UP  26066.05640264  .00007295  00000+0  15629-2 0  9995
2 34553  74.0264  31.3388 0015671  92.4113  28.0422 14.58786926893252
COSMOS 2251 DEB         
1 34554U 93036UQ  26065.62896794  .00001084  00000+0  36509-3 0  9990
2 34554  74.0387 144.5060 0023409 194.2686 328.2602 14.38131060889618
COSMOS 2251 DEB         
1 34556U 93036US  26066.16489142  .00014723  00000+0  19054-2 0  9996
2 34556  74.0160 318.5299 0005720 349.1651 164.6831 14.80879514895775
COSMOS 2251 DEB         
1 34560U 93036UW  26066.18933221  .00014852  00000+0  22261-2 0  9992
2 34560  74.0191 337.3352 0011722  37.7891 122.8724 14.74590847894956
COSMOS 2251 DEB         
1 34563U 93036UZ  26065.76650197  .00002399  00000+0  66821-3 0  9990
2 34563  74.0388  46.7821 0011651 130.2277 296.4371 14.46858432894128
COSMOS 2251 DEB         
1 34564U 93036VA  26065.47574177  .00000932  00000+0  29844-3 0  9997
2 34564  74.0304  83.0678 0018741 176.0632 334.5920 14.40856270892125
COSMOS 2251 DEB         
1 34567U 93036VD  26065.94146693  .00000572  00000+0  25237-3 0  9992
2 34567  74.0443   5.2199 0072334  58.3917  13.9580 14.24115249883230
COSMOS 2251 DEB         
1 34569U 93036VF  26065.38491804  .00001528  00000+0  58180-3 0  9994
2 34569  73.9904  46.8425 0159145 216.9268 297.1594 14.25038256881593
COSMOS 2251 DEB         
1 34570U 93036VG  26065.46134719  .00001458  00000+0  85967-3 0  9999
2 34570  73.9559  72.6555 0192419 297.1223 215.9816 13.99994557867724
COSMOS 2251 DEB         
1 34571U 93036VH  26064.92744201  .00012813  00000+0  31897-2 0  9992
2 34571  74.0407  26.2920 0058368  40.1741 320.3712 14.50706484884997
COSMOS 2251 DEB         
1 34572U 93036VJ  26065.12683154  .00007711  00000+0  18779-2 0  9990
2 34572  74.0103 318.4294 0060453  11.6288 142.6271 14.51771226885878
